OBJECT_NAME,OBJECT_ID,EPOCH,MEAN_MOTION,ECCENTRICITY,INCLINATION,RA_OF_ASC_NODE,ARG_OF_PERICENTER,MEAN_ANOMALY,EPHEMERIS_TYPE,CLASSIFICATION_TYPE,NORAD_CAT_ID,ELEMENT_SET_NO,REV_AT_EPOCH,BSTAR,MEAN_MOTION_DOT,MEAN_MOTION_DDOT
TJS-26A,2026-144A,2026-07-23T06:39:10.298592,1.00270413,.00038715,6.9375,323.2269,350.3399,194.7742,0,U,69674,999,30,0,-.339E-5,0
CZ-7A R/B,2026-144B,2026-07-22T03:50:26.353536,2.75416453,.69798221,19.4340,311.5809,202.9941,97.3887,0,U,69675,999,75,.94920251E-3,.1103206E-1,.1063878E-4
STARLINK-38005,2026-145A,2026-07-23T06:00:02.000160,15.59010553,.00017281,97.2850,51.4352,105.8396,172.8220,0,U,69677,999,571,-.34726177E-1,-.2367802E-1,0
STARLINK-38009,2026-145B,2026-07-23T06:00:02.000160,15.58048567,.00018703,97.2849,51.4450,104.1856,195.7336,0,U,69678,999,572,-.36706306E-1,-.24075E-1,0
STARLINK-37998,2026-145C,2026-07-23T06:00:02.000160,15.69759604,.00016828,97.2849,51.4839,91.9310,306.8681,0,U,69679,999,572,-.94226388E-2,-.100963E-1,0
STARLINK-37994,2026-145D,2026-07-23T06:00:02.000160,15.58680893,.00020668,97.2852,51.4403,99.5382,195.4678,0,U,69680,999,572,-.15332795E-1,-.1070181E-1,0
STARLINK-37992,2026-145E,2026-07-23T06:00:02.000160,15.59448916,.00017047,97.2844,51.4481,104.2517,211.4784,0,U,69681,999,572,-.35640201E-1,-.245778E-1,0
STARLINK-37997,2026-145F,2026-07-23T06:00:02.000160,15.60280287,.00017369,97.2848,51.4598,111.3440,226.4974,0,U,69682,999,572,-.33138035E-1,-.2371547E-1,0
STARLINK-37990,2026-145G,2026-07-23T06:00:02.000160,15.58128744,.00017343,97.2848,51.4397,98.6829,191.6154,0,U,69683,999,572,-.14475948E-1,-.981801E-2,0
STARLINK-37951,2026-145H,2026-07-23T01:11:21.326496,15.75103066,.00022456,97.2836,51.2809,52.9635,307.1836,0,U,69684,999,441,-.70306778E-3,-.103364E-2,0
STARLINK-37957,2026-145J,2026-07-23T06:00:02.000160,15.58776951,.00018133,97.2854,51.4570,101.7302,229.6821,0,U,69685,999,572,-.2686505E-1,-.1837714E-1,0
STARLINK-37968,2026-145K,2026-07-23T06:00:02.000160,15.49455181,.00019112,97.2854,51.4179,65.0802,179.4702,0,U,69686,999,572,-.96639072E-2,-.498461E-2,0
STARLINK-37977,2026-145L,2026-07-23T06:00:02.000160,15.56302337,.00015244,97.2856,51.4580,101.7296,232.7273,0,U,69687,999,572,-.36928457E-1,-.2284775E-1,0
STARLINK-37908,2026-145M,2026-07-23T06:00:02.000160,15.61739444,.00014325,97.2848,51.4926,85.8303,323.5342,0,U,69688,999,572,-.31849579E-1,-.2406471E-1,0
STARLINK-37979,2026-145N,2026-07-23T06:00:02.000160,15.53704674,.00015028,97.2853,51.4390,96.2163,188.7638,0,U,69689,999,572,-.2328689E-1,-.1342093E-1,0
STARLINK-37940,2026-145P,2026-07-23T06:00:02.000160,15.64801099,.00016338,97.2847,51.4962,74.8160,351.2166,0,U,69690,999,572,-.29636352E-1,-.2511239E-1,0
STARLINK-37961,2026-145Q,2026-07-23T06:00:02.000160,15.54946910,.00015583,97.2854,51.4690,100.0547,259.7269,0,U,69691,999,572,-.41005046E-1,-.2396447E-1,0
STARLINK-37787,2026-145R,2026-07-23T06:00:02.000160,15.60805175,.00017355,97.2849,51.5002,77.4886,352.4752,0,U,69692,999,572,-.98215685E-2,-.745871E-2,0
STARLINK-37962,2026-145S,2026-07-23T06:00:02.000160,15.62306995,.00016199,97.2845,51.5108,84.5833,15.3585,0,U,69693,999,572,-.12379213E-1,-.985139E-2,0
STARLINK-37953,2026-145T,2026-07-23T06:00:02.000160,15.53354093,.00017974,97.2850,51.4634,110.3241,232.6943,0,U,69694,999,572,-.43437258E-1,-.239493E-1,0
STARLINK-37926,2026-145U,2026-07-23T06:00:02.000160,15.54103197,.00016742,97.2857,51.4691,105.0018,250.3408,0,U,69695,999,572,-.42110303E-1,-.2387262E-1,0
STARLINK-37959,2026-145V,2026-07-23T06:00:02.000160,15.61260009,.0001613,97.2851,51.5067,79.1682,9.4866,0,U,69696,999,572,-.24256873E-1,-.1826332E-1,0
STARLINK-37976,2026-145W,2026-07-23T06:00:02.000160,15.59148215,.00016427,97.2852,51.5068,85.1511,359.3727,0,U,69697,999,572,-.36079687E-1,-.2459365E-1,0
STARLINK-37912,2026-145X,2026-07-23T06:00:02.000160,15.71265379,.00018977,97.2843,51.5433,77.7631,93.8810,0,U,69698,999,572,-.16287525E-1,-.1802066E-1,0
STARLINK-37974,2026-145Y,2026-07-23T06:00:02.000160,15.61529893,.0001337,97.2844,51.5188,71.1449,48.4626,0,U,69699,999,572,-.16682041E-1,-.1274408E-1,0
STARLINK-37955,2026-145Z,2026-07-23T06:00:02.000160,15.59999053,.00014081,97.2847,51.5087,71.7044,19.4981,0,U,69700,999,572,-.33560807E-1,-.2375136E-1,0
STRIX-8,2026-146A,2026-07-22T18:53:36.135456,15.04481887,.00063564,41.9902,331.0352,79.5982,280.5561,0,U,69701,999,392,.33156897E-3,.4533E-4,0
ELECTRON R/B,2026-146B,2026-07-22T07:39:00.176256,15.82089404,.01467597,42.0717,318.5609,70.7349,290.9318,0,U,69702,999,403,.14336158E-2,.702004E-2,.1823544E-3
ELECTRON KICK STAGE R/B,2026-146C,2026-07-23T01:03:04.597344,15.04987941,.00082016,41.9887,329.4918,80.7857,279.3898,0,U,69703,999,396,.28702092E-3,.3953E-4,0
STARLINK-38055,2026-147A,2026-07-23T06:00:02.000160,15.65060107,.00017084,97.2847,241.0639,80.7029,66.3876,0,U,69704,999,503,-.28777356E-1,-.2469985E-1,0
