TJS-26A                 
1 69674U 26144A   26204.27720253 -.00000339  00000+0  00000+0 0  9995
2 69674   6.9375 323.2269 0003871 350.3399 194.7742  1.00270413   307
CZ-7A R/B               
1 69675U 26144B   26203.16002724  .01103206  10639-4  94920-3 0  9998
2 69675  19.4340 311.5809 6979822 202.9941  97.3887  2.75416453   754
STARLINK-38005          
1 69677U 26145A   26204.25002315 -.02367802  00000+0 -34726-1 0  9997
2 69677  97.2850  51.4352 0001728 105.8396 172.8220 15.59010553  5717
STARLINK-38009          
1 69678U 26145B   26204.25002315 -.02407500  00000+0 -36706-1 0  9998
2 69678  97.2849  51.4450 0001870 104.1856 195.7336 15.58048567  5724
STARLINK-37998          
1 69679U 26145C   26204.25002315 -.01009630  00000+0 -94226-2 0  9992
2 69679  97.2849  51.4839 0001682  91.9310 306.8681 15.69759604  5726
STARLINK-37994          
1 69680U 26145D   26204.25002315 -.01070181  00000+0 -15333-1 0  9994
2 69680  97.2852  51.4403 0002066  99.5382 195.4678 15.58680893  5728
STARLINK-37992          
1 69681U 26145E   26204.25002315 -.02457780  00000+0 -35640-1 0  9993
2 69681  97.2844  51.4481 0001704 104.2517 211.4784 15.59448916  5724
STARLINK-37997          
1 69682U 26145F   26204.25002315 -.02371547  00000+0 -33138-1 0  9990
2 69682  97.2848  51.4598 0001736 111.3440 226.4974 15.60280287  5721
STARLINK-37990          
1 69683U 26145G   26204.25002315 -.00981801  00000+0 -14476-1 0  9993
2 69683  97.2848  51.4397 0001734  98.6829 191.6154 15.58128744  5724
STARLINK-37951          
1 69684U 26145H   26204.04955239 -.00103364  00000+0 -70307-3 0  9990
2 69684  97.2836  51.2809 0002245  52.9635 307.1836 15.75103066  4419
STARLINK-37957          
1 69685U 26145J   26204.25002315 -.01837714  00000+0 -26865-1 0  9994
2 69685  97.2854  51.4570 0001813 101.7302 229.6821 15.58776951  5728
STARLINK-37968          
1 69686U 26145K   26204.25002315 -.00498461  00000+0 -96639-2 0  9993
2 69686  97.2854  51.4179 0001911  65.0802 179.4702 15.49455181  5729
STARLINK-37977          
1 69687U 26145L   26204.25002315 -.02284775  00000+0 -36928-1 0  9991
2 69687  97.2856  51.4580 0001524 101.7296 232.7273 15.56302337  5721
STARLINK-37908          
1 69688U 26145M   26204.25002315 -.02406471  00000+0 -31850-1 0  9990
2 69688  97.2848  51.4926 0001432  85.8303 323.5342 15.61739444  5721
STARLINK-37979          
1 69689U 26145N   26204.25002315 -.01342093  00000+0 -23287-1 0  9994
2 69689  97.2853  51.4390 0001502  96.2163 188.7638 15.53704674  5728
STARLINK-37940          
1 69690U 26145P   26204.25002315 -.02511239  00000+0 -29636-1 0  9991
2 69690  97.2847  51.4962 0001633  74.8160 351.2166 15.64801099  5726
STARLINK-37961          
1 69691U 26145Q   26204.25002315 -.02396447  00000+0 -41005-1 0  9998
2 69691  97.2854  51.4690 0001558 100.0547 259.7269 15.54946910  5727
STARLINK-37787          
1 69692U 26145R   26204.25002315 -.00745871  00000+0 -98216-2 0  9993
2 69692  97.2849  51.5002 0001735  77.4886 352.4752 15.60805175  5722
STARLINK-37962          
1 69693U 26145S   26204.25002315 -.00985139  00000+0 -12379-1 0  9992
2 69693  97.2845  51.5108 0001619  84.5833  15.3585 15.62306995  5725
STARLINK-37953          
1 69694U 26145T   26204.25002315 -.02394930  00000+0 -43437-1 0  9997
2 69694  97.2850  51.4634 0001797 110.3241 232.6943 15.53354093  5727
STARLINK-37926          
1 69695U 26145U   26204.25002315 -.02387262  00000+0 -42110-1 0  9995
2 69695  97.2857  51.4691 0001674 105.0018 250.3408 15.54103197  5726
STARLINK-37959          
1 69696U 26145V   26204.25002315 -.01826332  00000+0 -24257-1 0  9993
2 69696  97.2851  51.5067 0001613  79.1682   9.4866 15.61260009  5725
STARLINK-37976          
1 69697U 26145W   26204.25002315 -.02459365  00000+0 -36080-1 0  9990
2 69697  97.2852  51.5068 0001642  85.1511 359.3727 15.59148215  5722
STARLINK-37912          
1 69698U 26145X   26204.25002315 -.01802066  00000+0 -16288-1 0  9998
2 69698  97.2843  51.5433 0001897  77.7631  93.8810 15.71265379  5729
STARLINK-37974          
1 69699U 26145Y   26204.25002315 -.01274408  00000+0 -16682-1 0  9990
2 69699  97.2844  51.5188 0001337  71.1449  48.4626 15.61529893  5726
STARLINK-37955          
1 69700U 26145Z   26204.25002315 -.02375136  00000+0 -33561-1 0  9999
2 69700  97.2847  51.5087 0001408  71.7044  19.4981 15.59999053  5724
STRIX-8                 
1 69701U 26146A   26203.78722379  .00004533  00000+0  33157-3 0  9996
2 69701  41.9902 331.0352 0006356  79.5982 280.5561 15.04481887  3924
ELECTRON R/B            
1 69702U 26146B   26203.31875204  .00702004  18235-3  14336-2 0  9990
2 69702  42.0717 318.5609 0146759  70.7349 290.9318 15.82089404  4031
ELECTRON KICK STAGE R/B 
1 69703U 26146C   26204.04380321  .00003953  00000+0  28702-3 0  9990
2 69703  41.9887 329.4918 0008201  80.7857 279.3898 15.04987941  3968
STARLINK-38055          
1 69704U 26147A   26204.25002315 -.02469985  00000+0 -28777-1 0  9994
2 69704  97.2847 241.0639 0001708  80.7029  66.3876 15.65060107  5037
